ONEWEB-0558             
1 56059U 23043P   25247.68870158 -.00000082  00000+0 -23010-3 0  9990
2 56059  87.9224 300.9599 0001493  98.2489 261.8814 13.21823682120527
ONEWEB-0559             
1 56060U 23043Q   25247.67768232 -.00000083  00000+0 -23304-3 0  9997
2 56060  87.9227 300.9545 0001650  86.6010 273.5313 13.21825811120530
ONEWEB-0566             
1 56061U 23043R   25247.67137165 -.00000069  00000+0 -19939-3 0  9996
2 56061  87.9226 300.9536 0001620  93.4632 266.6688 13.21825536120513
ONEWEB-0568             
1 56062U 23043S   25247.56636406  .00000144  00000+0  34388-3 0  9994
2 56062  87.9002 285.6962 0002150 100.1737 259.9636 13.16594020121399
ONEWEB-0574             
1 56063U 23043T   25247.58937452  .00000009  00000+0 -10005-4 0  9994
2 56063  87.9226 300.9584 0002087  92.2486 267.8887 13.21825743120547
ONEWEB-0575             
1 56064U 23043U   25247.56002493  .00000096  00000+0  21828-3 0  9990
2 56064  87.8996 285.7021 0002372  91.8981 268.2422 13.16594677121385
ONEWEB-0576             
1 56065U 23043V   25247.46502964  .00000100  00000+0  22838-3 0  9996
2 56065  87.9007 285.7145 0002121  96.3908 263.7465 13.16593685121361
ONEWEB-0577             
1 56066U 23043W   25247.54735805  .00000094  00000+0  21114-3 0  9996
2 56066  87.9004 285.6996 0002578  88.7239 271.4188 13.16592950121407
